start=new Date('2022-05-16T00:00:00.000Z').valueOf();
sats=[{"LAUNCH_DATE":"2020-02-17","TIME_SYSTEM":"UTC","PERIOD":"95.591","TLE_LINE1":"1 45237U 20012BM  22135.43390835  .00002796  00000-0  20650-3 0  9994","FILE":"3447100","OBJECT_NAME":"STARLINK-1270","MEAN_ANOMALY":"311.9628","REV_AT_EPOCH":"12525","APOAPSIS":"548.740","TLE_LINE2":"2 45237  53.0527 145.6840 0002264  48.1554 311.9628 15.06413545125253","GP_ID":"203611518","EPHEMERIS_TYPE":"0","MEAN_ELEMENT_THEORY":"SGP4","NORAD_CAT_ID":"45237","DECAY_DATE":null,"MEAN_MOTION":"15.06413545","RCS_SIZE":"LARGE","INCLINATION":"53.0527","SEMIMAJOR_AXIS":"6925.307","ECCENTRICITY":"0.00022640","OBJECT_ID":"2020-012BM","MEAN_MOTION_DDOT":"0.0000000000000","OBJECT_TYPE":"PAYLOAD","MEAN_MOTION_DOT":"0.00002796","PERIAPSIS":"545.604","ELEMENT_SET_NO":"999","CENTER_NAME":"EARTH","CLASSIFICATION_TYPE":"U","BSTAR":"0.00020650000000","REF_FRAME":"TEME","COUNTRY_CODE":"US","EPOCH":"2022-05-15T10:24:49.681440","RA_OF_ASC_NODE":"145.6840","SITE":"AFETR","ARG_OF_PERICENTER":"48.1554"},{"NORAD_CAT_ID":"45360","MEAN_ELEMENT_THEORY":"SGP4","EPHEMERIS_TYPE":"0","TLE_LINE2":"2 45360  53.0557 274.0778 0001625  86.4140 273.7034 15.06410929120047","GP_ID":"203646422","APOAPSIS":"548.305","REV_AT_EPOCH":"12004","MEAN_ANOMALY":"273.7034","PERIOD":"95.591","TLE_LINE1":"1 45360U 20019A   22135.79051374  .00008206  00000-0  56900-3 0  9998","FILE":"3447521","OBJECT_NAME":"STARLINK-1279","LAUNCH_DATE":"2020-03-18","TIME_SYSTEM":"UTC","SITE":"AFETR","RA_OF_ASC_NODE":"274.0778","ARG_OF_PERICENTER":"86.4140","EPOCH":"2022-05-15T18:58:20.387136","ELEMENT_SET_NO":"999","CLASSIFICATION_TYPE":"U","CENTER_NAME":"EARTH","BSTAR":"0.00056900000000","REF_FRAME":"TEME","COUNTRY_CODE":"US","MEAN_MOTION_DOT":"0.00008206","OBJECT_TYPE":"PAYLOAD","PERIAPSIS":"546.055","INCLINATION":"53.0557","SEMIMAJOR_AXIS":"6925.315","ECCENTRICITY":"0.00016250","MEAN_MOTION_DDOT":"0.0000000000000","OBJECT_ID":"2020-019A","RCS_SIZE":"LARGE","MEAN_MOTION":"15.06410929","DECAY_DATE":null},{"EPOCH":"2022-05-15T17:05:33.235008","ARG_OF_PERICENTER":"77.0971","RA_OF_ASC_NODE":"284.4309","SITE":"AFETR","COUNTRY_CODE":"US","REF_FRAME":"TEME","CENTER_NAME":"EARTH","CLASSIFICATION_TYPE":"U","BSTAR":"0.00003611500000","ELEMENT_SET_NO":"999","OBJECT_ID":"2020-019B","MEAN_MOTION_DDOT":"0.0000000000000","ECCENTRICITY":"0.00013990","SEMIMAJOR_AXIS":"6925.372","INCLINATION":"53.0569","OBJECT_TYPE":"PAYLOAD","MEAN_MOTION_DOT":"0.00000256","PERIAPSIS":"546.269","DECAY_DATE":null,"RCS_SIZE":"LARGE","MEAN_MOTION":"15.06392210","EPHEMERIS_TYPE":"0","MEAN_ELEMENT_THEORY":"SGP4","NORAD_CAT_ID":"45361","APOAPSIS":"548.206","GP_ID":"203646672","TLE_LINE2":"2 45361  53.0569 284.4309 0001399  77.0971 283.0174 15.06392210119906","MEAN_ANOMALY":"283.0174","REV_AT_EPOCH":"11990","TIME_SYSTEM":"UTC","LAUNCH_DATE":"2020-03-18","OBJECT_NAME":"STARLINK-1301","FILE":"3447521","TLE_LINE1":"1 45361U 20019B   22135.71219022  .00000256  00000-0  36115-4 0  9991","PERIOD":"95.593"},{"EPHEMERIS_TYPE":"0","MEAN_ELEMENT_THEORY":"SGP4","NORAD_CAT_ID":"45362","APOAPSIS":"548.261","GP_ID":"203647923","TLE_LINE2":"2 45362  53.0554 304.2193 0001536  65.3724 294.7425 15.06405322119628","MEAN_ANOMALY":"294.7425","REV_AT_EPOCH":"11962","TIME_SYSTEM":"UTC","LAUNCH_DATE":"2020-03-18","PERIOD":"95.592","FILE":"3447521","OBJECT_NAME":"STARLINK-1306","TLE_LINE1":"1 45362U 20019C   22135.75826221 -.00002165  00000-0 -12645-3 0  9995","EPOCH":"2022-05-15T18:11:53.854944","RA_OF_ASC_NODE":"304.2193","SITE":"AFETR","ARG_OF_PERICENTER":"65.3724","CLASSIFICATION_TYPE":"U","CENTER_NAME":"EARTH","BSTAR":"-0.00012645000000","ELEMENT_SET_NO":"999","REF_FRAME":"TEME","COUNTRY_CODE":"US","INCLINATION":"53.0554","SEMIMAJOR_AXIS":"6925.332","OBJECT_ID":"2020-019C","MEAN_MOTION_DDOT":"0.0000000000000","ECCENTRICITY":"0.00015360","OBJECT_TYPE":"PAYLOAD","PERIAPSIS":"546.134","MEAN_MOTION_DOT":"-0.00002165","DECAY_DATE":null,"MEAN_MOTION":"15.06405322","RCS_SIZE":"LARGE"},{"EPHEMERIS_TYPE":"0","NORAD_CAT_ID":"45364","MEAN_ELEMENT_THEORY":"SGP4","APOAPSIS":"548.251","GP_ID":"203647668","TLE_LINE2":"2 45364  53.0553 274.0996 0001482  68.1471 291.9675 15.06396424120040","MEAN_ANOMALY":"291.9675","REV_AT_EPOCH":"12004","TIME_SYSTEM":"UTC","LAUNCH_DATE":"2020-03-18","FILE":"3447521","OBJECT_NAME":"STARLINK-1313","TLE_LINE1":"1 45364U 20019E   22135.78682602  .00000156  00000-0  29395-4 0  9990","PERIOD":"95.592","EPOCH":"2022-05-15T18:53:01.768128","ARG_OF_PERICENTER":"68.1471","RA_OF_ASC_NODE":"274.0996","SITE":"AFETR","COUNTRY_CODE":"US","REF_FRAME":"TEME","CLASSIFICATION_TYPE":"U","CENTER_NAME":"EARTH","BSTAR":"0.00002939500000","ELEMENT_SET_NO":"999","OBJECT_ID":"2020-019E","MEAN_MOTION_DDOT":"0.0000000000000","ECCENTRICITY":"0.00014820","INCLINATION":"53.0553","SEMIMAJOR_AXIS":"6925.360","MEAN_MOTION_DOT":"0.00000156","OBJECT_TYPE":"PAYLOAD","PERIAPSIS":"546.198","DECAY_DATE":null,"MEAN_MOTION":"15.06396424","RCS_SIZE":"LARGE"},{"ECCENTRICITY":"0.00014760","OBJECT_ID":"2020-019F","MEAN_MOTION_DDOT":"0.0000000000000","INCLINATION":"53.0003","SEMIMAJOR_AXIS":"6927.854","OBJECT_TYPE":"PAYLOAD","MEAN_MOTION_DOT":"0.00000835","PERIAPSIS":"548.697","DECAY_DATE":null,"RCS_SIZE":"LARGE","MEAN_MOTION":"15.05582805","EPOCH":"2022-05-15T20:13:55.445376","ARG_OF_PERICENTER":"86.9646","SITE":"AFETR","RA_OF_ASC_NODE":"283.8537","REF_FRAME":"TEME","COUNTRY_CODE":"US","ELEMENT_SET_NO":"999","CLASSIFICATION_TYPE":"U","CENTER_NAME":"EARTH","BSTAR":"0.00007643900000","MEAN_ANOMALY":"273.1511","REV_AT_EPOCH":"11987","LAUNCH_DATE":"2020-03-18","TIME_SYSTEM":"UTC","TLE_LINE1":"1 45365U 20019F   22135.84300284  .00000835  00000-0  76439-4 0  9996","FILE":"3447521","OBJECT_NAME":"STARLINK-1317","PERIOD":"95.644","EPHEMERIS_TYPE":"0","NORAD_CAT_ID":"45365","MEAN_ELEMENT_THEORY":"SGP4","APOAPSIS":"550.742","TLE_LINE2":"2 45365  53.0003 283.8537 0001476  86.9646 273.1511 15.05582805119874","GP_ID":"203646923"},{"CENTER_NAME":"EARTH","CLASSIFICATION_TYPE":"U","BSTAR":"0.00017466000000","ELEMENT_SET_NO":"999","REF_FRAME":"TEME","COUNTRY_CODE":"US","EPOCH":"2022-05-15T19:26:11.789952","RA_OF_ASC_NODE":"303.9808","SITE":"AFETR","ARG_OF_PERICENTER":"73.8291","DECAY_DATE":null,"RCS_SIZE":"LARGE","MEAN_MOTION":"15.06408382","SEMIMAJOR_AXIS":"6925.323","INCLINATION":"53.0558","MEAN_MOTION_DDOT":"0.0000000000000","OBJECT_ID":"2020-019G","ECCENTRICITY":"0.00015740","MEAN_MOTION_DOT":"0.00002322","OBJECT_TYPE":"PAYLOAD","PERIAPSIS":"546.098","APOAPSIS":"548.278","GP_ID":"203647173","TLE_LINE2":"2 45366  53.0558 303.9808 0001574  73.8291 286.2871 15.06408382119642","EPHEMERIS_TYPE":"0","NORAD_CAT_ID":"45366","MEAN_ELEMENT_THEORY":"SGP4","TIME_SYSTEM":"UTC","LAUNCH_DATE":"2020-03-18","PERIOD":"95.592","OBJECT_NAME":"STARLINK-1262","FILE":"3447521","TLE_LINE1":"1 45366U 20019G   22135.80985868  .00002322  00000-0  17466-3 0  9997","MEAN_ANOMALY":"286.2871","REV_AT_EPOCH":"11964"},{"APOAPSIS":"548.276","GP_ID":"203647423","TLE_LINE2":"2 45367  53.0544 303.5911 0001460  73.9427 286.1722 15.06383374119653","EPHEMERIS_TYPE":"0","NORAD_CAT_ID":"45367","MEAN_ELEMENT_THEORY":"SGP4","TIME_SYSTEM":"UTC","LAUNCH_DATE":"2020-03-18","PERIOD":"95.593","OBJECT_NAME":"STARLINK-1273","FILE":"3447521","TLE_LINE1":"1 45367U 20019H   22135.89833934 -.00000328  00000-0 -31405-5 0  9990","MEAN_ANOMALY":"286.1722","REV_AT_EPOCH":"11965","CLASSIFICATION_TYPE":"U","BSTAR":"-0.00000314050000","CENTER_NAME":"EARTH","ELEMENT_SET_NO":"999","REF_FRAME":"TEME","COUNTRY_CODE":"US","EPOCH":"2022-05-15T21:33:36.518976","SITE":"AFETR","RA_OF_ASC_NODE":"303.5911","ARG_OF_PERICENTER":"73.9427","DECAY_DATE":null,"RCS_SIZE":"LARGE","MEAN_MOTION":"15.06383374","INCLINATION":"53.0544","SEMIMAJOR_AXIS":"6925.400","MEAN_MOTION_DDOT":"0.0000000000000","OBJECT_ID":"2020-019H","ECCENTRICITY":"0.00014600","OBJECT_TYPE":"PAYLOAD","PERIAPSIS":"546.253","MEAN_MOTION_DOT":"-0.00000328"},{"RA_OF_ASC_NODE":"303.7180","SITE":"AFETR","ARG_OF_PERICENTER":"91.9775","EPOCH":"2022-05-15T20:51:07.797600","ELEMENT_SET_NO":"999","CENTER_NAME":"EARTH","BSTAR":"0.00010556000000","CLASSIFICATION_TYPE":"U","COUNTRY_CODE":"US","REF_FRAME":"TEME","OBJECT_TYPE":"PAYLOAD","MEAN_MOTION_DOT":"0.00001291","PERIAPSIS":"546.296","INCLINATION":"53.0567","SEMIMAJOR_AXIS":"6925.343","ECCENTRICITY":"0.00013180","MEAN_MOTION_DDOT":"0.0000000000000","OBJECT_ID":"2020-019J","RCS_SIZE":"LARGE","MEAN_MOTION":"15.06401659","DECAY_DATE":null,"NORAD_CAT_ID":"45368","MEAN_ELEMENT_THEORY":"SGP4","EPHEMERIS_TYPE":"0","TLE_LINE2":"2 45368  53.0567 303.7180 0001318  91.9775 268.1365 15.06401659119657","GP_ID":"203648169","APOAPSIS":"548.121","REV_AT_EPOCH":"11965","MEAN_ANOMALY":"268.1365","PERIOD":"95.592","TLE_LINE1":"1 45368U 20019J   22135.86884025  .00001291  00000-0  10556-3 0  9995","FILE":"3447521","OBJECT_NAME":"STARLINK-1276","LAUNCH_DATE":"2020-03-18","TIME_SYSTEM":"UTC"},{"COUNTRY_CODE":"US","REF_FRAME":"TEME","CLASSIFICATION_TYPE":"U","CENTER_NAME":"EARTH","BSTAR":"0.00030867000000","ELEMENT_SET_NO":"999","ARG_OF_PERICENTER":"78.6170","RA_OF_ASC_NODE":"303.7248","SITE":"AFETR","EPOCH":"2022-05-15T20:49:45.832512","RCS_SIZE":"LARGE","MEAN_MOTION":"15.06404070","DECAY_DATE":null,"OBJECT_TYPE":"PAYLOAD","MEAN_MOTION_DOT":"0.00004320","PERIAPSIS":"546.160","MEAN_MOTION_DDOT":"0.0000000000000","OBJECT_ID":"2020-019K","ECCENTRICITY":"0.00015040","INCLINATION":"53.0528","SEMIMAJOR_AXIS":"6925.336","GP_ID":"203646423","TLE_LINE2":"2 45369  53.0528 303.7248 0001504  78.6170 281.4988 15.06404070119657","APOAPSIS":"548.243","NORAD_CAT_ID":"45369","MEAN_ELEMENT_THEORY":"SGP4","EPHEMERIS_TYPE":"0","OBJECT_NAME":"STARLINK-1277","FILE":"3447521","TLE_LINE1":"1 45369U 20019K   22135.86789158  .00004320  00000-0  30867-3 0  9990","PERIOD":"95.592","TIME_SYSTEM":"UTC","LAUNCH_DATE":"2020-03-18","REV_AT_EPOCH":"11965","MEAN_ANOMALY":"281.4988"}];
